OBJECT_NAME,OBJECT_ID,EPOCH,MEAN_MOTION,ECCENTRICITY,INCLINATION,RA_OF_ASC_NODE,ARG_OF_PERICENTER,MEAN_ANOMALY,EPHEMERIS_TYPE,CLASSIFICATION_TYPE,NORAD_CAT_ID,ELEMENT_SET_NO,REV_AT_EPOCH,BSTAR,MEAN_MOTION_DOT,MEAN_MOTION_DDOT
COSMOS 2531 (RODNIK-S 17),2018-097B,2026-07-03T15:49:03.039744,12.42912894,.00171159,82.5164,213.1220,23.8905,336.2966,0,U,43752,999,34435,-.25268217E-3,-.25E-6,0
COSMOS 2532 (RODNIK-S 18),2018-097C,2026-07-03T16:29:48.953760,12.42909907,.00185509,82.5108,211.8830,25.6132,334.5863,0,U,43753,999,34432,-.86462032E-3,-.11E-5,0
MINXSS-2,2018-099A,2026-07-02T11:34:52.706208,15.47973595,.00079068,97.4528,260.2256,199.5373,160.5575,0,U,43758,999,41649,.79596612E-3,.41673E-3,0
SIRION PATHFINDER-2,2018-099B,2026-07-02T10:37:46.392384,15.14680073,.0007319,97.4240,232.1382,240.1372,119.9133,0,U,43759,999,41493,.27406E-3,.5009E-4,0
AISTECHSAT 2,2018-099L,2026-07-02T14:31:17.994432,15.15604679,.00034034,97.4280,231.3022,229.2591,130.8346,0,U,43768,999,41461,.34662409E-3,.652E-4,0
FOX-1CLIFF (AO-95),2018-099N,2026-07-02T14:37:55.530336,15.27038658,.00069302,97.4375,243.8014,294.3124,65.7391,0,U,43770,999,41557,.43513863E-3,.11484E-3,0
RANGE-A,2018-099R,2026-07-02T20:20:28.039200,15.13523059,.00085198,97.3952,225.9690,296.4280,63.6077,0,U,43773,999,41486,.33091759E-3,.5869E-4,0
SNUSAT-2,2018-099AA,2026-07-02T14:04:51.394080,15.22071702,.0009006,97.4045,236.7351,234.9023,125.1369,0,U,43782,999,41537,.38559E-3,.8765E-4,0
SNUGLITE,2018-099AC,2026-07-02T14:31:44.336928,15.27517014,.00023238,97.3855,237.7359,197.1791,162.9370,0,U,43784,999,41567,.44880428E-3,.12016E-3,0
ITASAT,2018-099AE,2026-07-02T08:51:25.431840,15.19245229,.0010879,97.4016,234.5787,302.6059,57.4125,0,U,43786,999,41521,.38656E-3,.8093E-4,0
EAGLET-I,2018-099AJ,2026-07-02T14:16:31.098432,15.13055374,.0009455,97.4219,232.8557,295.5575,64.4678,0,U,43790,999,41466,.26073E-3,.455E-4,0
ESEO,2018-099AL,2026-07-02T19:29:46.329792,15.04292702,.00101768,97.3961,220.5320,282.2962,77.7125,0,U,43792,999,41415,.8917266E-4,.1184E-4,0
THEA,2018-099AQ,2026-07-02T15:34:53.641344,15.35546327,.0006861,97.4435,253.4963,218.6577,141.4176,0,U,43796,999,41506,.55724402E-3,.19209E-3,0
ASTROCAST 0.1,2018-099AS,2026-07-02T16:34:07.446144,15.50626299,.00056514,97.4377,262.6809,160.4018,199.7452,0,U,43798,999,41683,.66241006E-3,.38004E-3,0
JY1SAT (JO-97),2018-099AX,2026-07-02T14:55:37.712928,15.34152879,.00056509,97.4118,246.5140,198.6681,161.4355,0,U,43803,999,41599,.5420785E-3,.17868E-3,0
SUOMI-100,2018-099AY,2026-07-02T03:09:38.837664,15.28763890,.0009224,97.4174,243.4719,218.5665,141.4917,0,U,43804,999,41570,.54328199E-3,.15147E-3,0
CENTAURI-1,2018-099BD,2026-07-02T02:51:15.679008,15.16512719,.00123573,97.4209,234.5184,275.9310,84.0515,0,U,43809,999,41476,.31443236E-3,.6073E-4,0
GLOBAL-2,2018-099BG,2026-07-02T07:54:10.376064,15.08760428,.000756,97.3543,219.2129,101.5307,258.6771,0,U,43812,999,41419,.25083E-3,.3882E-4,0
SEAHAWK-1,2018-099BQ,2026-07-02T13:50:54.989376,15.23057794,.000676,97.3944,235.8295,248.3121,111.7396,0,U,43820,999,41487,.40681E-3,.9522E-4,0
SAUDISAT 5A,2018-102A,2026-07-03T14:25:05.240640,15.28220168,.00111906,97.3055,245.8663,79.5341,280.7159,0,U,43831,999,41818,.22564877E-3,.6142E-4,0
SAUDISAT 5B,2018-102C,2026-07-03T16:22:35.359680,15.28469608,.00119201,97.3164,249.0460,80.9742,279.2846,0,U,43833,999,41831,.21706034E-3,.5952E-4,0
ISAT,2018-111D,2026-07-02T13:19:38.279424,15.68276951,.0005179,97.5869,119.9899,159.7546,200.3921,0,U,43879,999,41357,.97091E-3,.109751E-2,0
UWE-4,2018-111E,2026-07-02T17:50:18.256704,15.47102682,.00044126,97.5847,112.8616,254.2449,105.8314,0,U,43880,999,41318,.6510944E-3,.32995E-3,0
D-STAR ONE (SPARROW),2018-111F,2026-07-02T08:41:19.111200,15.79599179,.0006092,97.6097,125.6990,138.4422,221.7309,0,U,43881,999,41376,.11795E-2,.219348E-2,0
JILIN-1 09,2019-005B,2026-07-02T20:12:25.433856,15.20652166,.00032695,97.4747,278.6721,62.7959,297.3609,0,U,43943,999,41152,.25763752E-3,.5587E-4,0
JILIN-1 10,2019-005E,2026-07-02T19:12:47.811168,15.25892215,.00073644,97.4796,282.6065,213.9631,146.1136,0,U,43946,999,41169,.28866314E-3,.733E-4,0
EGYPTSAT-A (MISRSAT-A),2019-008A,2026-07-03T15:47:14.090208,14.72325821,.00016044,98.0187,249.1981,96.5364,263.6026,0,U,44047,999,39566,.88965082E-4,.513E-5,0
EMISAT,2019-018A,2026-07-03T17:01:07.785696,14.43645716,.00186266,98.4637,243.4185,164.5441,195.6322,0,U,44078,999,38244,.12165258E-3,.37E-5,0
JILIN-1 GAOFEN 3A,2019-032C,2026-07-03T15:19:36.278976,15.32992269,.00052434,44.9740,266.3727,23.9079,336.2048,0,U,44312,999,39036,.3767871E-3,.11955E-3,0
